{
"type": "FeatureCollection",
"name": "nyc_cp_boundary_poly_json",
"crs": { "type": "name", "properties": { "name": "urn:ogc:def:crs:OGC:1.3:CRS84" } },
"features": [
{ "type": "Feature", "properties": { "full_id": "w167922075", "osm_type": "way", "name": "Central Park South" }, "geometry": { "type": "MultiPolygon", "coordinates": [ [ [ [ -73.958265520139449, 40.759273174903988 ], [ -73.9583653, 40.7591336 ], [ -73.9584687, 40.7589864 ], [ -73.9591431, 40.7580427 ], [ -73.95982, 40.7572137 ], [ -73.9599492, 40.7570603 ], [ -73.9600592, 40.7569351 ], [ -73.9602659, 40.7567167 ], [ -73.9604726, 40.7564984 ], [ -73.9607146, 40.7562326 ], [ -73.9609295, 40.7560204 ], [ -73.9612422, 40.7557155 ], [ -73.9614353, 40.7555466 ], [ -73.9616701, 40.7553562 ], [ -73.9617558, 40.7552945 ], [ -73.9618366, 40.7552342 ], [ -73.9619402, 40.7551566 ], [ -73.9619994, 40.755104 ], [ -73.9621602, 40.7549581 ], [ -73.9622515, 40.7548652 ], [ -73.9623314, 40.754777 ], [ -73.9626987, 40.7543344 ], [ -73.9634115, 40.7535447 ], [ -73.9635797, 40.7533579 ], [ -73.9637348, 40.7531937 ], [ -73.9642563, 40.7526688 ], [ -73.9652088, 40.7516587 ], [ -73.9682455, 40.7479473 ], [ -73.9683571, 40.7478125 ], [ -73.9685321, 40.7476011 ], [ -73.9690233, 40.7470006 ], [ -73.9691818, 40.746832 ], [ -73.9698821, 40.7461648 ], [ -73.9701152, 40.7459383 ], [ -73.97046, 40.7455844 ], [ -73.9705532, 40.7454829 ], [ -73.9707054, 40.7453014 ], [ -73.9708649, 40.7451086 ], [ -73.9710047, 40.7449219 ], [ -73.9711418, 40.7447292 ], [ -73.971271, 40.7445414 ], [ -73.9719214, 40.7435537 ], [ -73.9720464, 40.7433517 ], [ -73.9721641, 40.7431387 ], [ -73.9722672, 40.7429379 ], [ -73.972364, 40.742735 ], [ -73.9724533, 40.742523 ], [ -73.9725292, 40.7423206 ], [ -73.9726041, 40.742096 ], [ -73.9726576, 40.7418734 ], [ -73.9729042, 40.740672 ], [ -73.9730467, 40.7399289 ], [ -73.9730944, 40.7397291 ], [ -73.9731548, 40.7395167 ], [ -73.9732353, 40.7393004 ], [ -73.9733194, 40.7390916 ], [ -73.9734334, 40.7388729 ], [ -73.9735277, 40.7387147 ], [ -73.9736228, 40.7385668 ], [ -73.9738156, 40.738339 ], [ -73.9743428, 40.7376221 ], [ -73.974504, 40.7374172 ], [ -73.9746286, 40.7372211 ], [ -73.9746887, 40.7371327 ], [ -73.9747536, 40.7370268 ], [ -73.9747997, 40.73695 ], [ -73.9748561, 40.7368449 ], [ -73.9749036, 40.7367426 ], [ -73.9749449, 40.7366414 ], [ -73.9749764, 40.7365503 ], [ -73.9750076, 40.7364426 ], [ -73.9750314, 40.7363306 ], [ -73.975048, 40.7362261 ], [ -73.9750543, 40.7361838 ], [ -73.97506, 40.7360888 ], [ -73.9750637, 40.7360061 ], [ -73.9750599, 40.735894 ], [ -73.97505, 40.7357801 ], [ -73.9750358, 40.7356684 ], [ -73.9750093, 40.7355566 ], [ -73.9749738, 40.7354095 ], [ -73.9740511, 40.7318028 ], [ -73.9740236, 40.7317024 ], [ -73.9739821, 40.7315902 ], [ -73.9739341, 40.7314855 ], [ -73.9738799, 40.7313773 ], [ -73.9738277, 40.7312793 ], [ -73.9737607, 40.7311762 ], [ -73.9736874, 40.7310735 ], [ -73.9736027, 40.7309708 ], [ -73.973479, 40.7308376 ], [ -73.9733507, 40.7307203 ], [ -73.9732286, 40.7306177 ], [ -73.9730922, 40.7305004 ], [ -73.9726311, 40.7301298 ], [ -73.9725393, 40.7300512 ], [ -73.9724471, 40.7299693 ], [ -73.9723599, 40.7298812 ], [ -73.9722793, 40.729796 ], [ -73.9722059, 40.7297053 ], [ -73.9720967, 40.729539 ], [ -73.9720178, 40.7294207 ], [ -73.9719616, 40.729316 ], [ -73.9719175, 40.7292203 ], [ -73.9718752, 40.7291137 ], [ -73.9718434, 40.7290104 ], [ -73.9718134, 40.7289004 ], [ -73.9717919, 40.728795 ], [ -73.9717783, 40.7286931 ], [ -73.9717692, 40.728585 ], [ -73.9717652, 40.7284812 ], [ -73.9717698, 40.7283721 ], [ -73.9717935, 40.7281681 ], [ -73.9718205, 40.7279491 ], [ -73.9718545, 40.7277134 ], [ -73.9719439, 40.727077 ], [ -73.9719579, 40.7269701 ], [ -73.9719771, 40.7268528 ], [ -73.9720044, 40.7267256 ], [ -73.972027, 40.726642 ], [ -73.9720543, 40.7265476 ], [ -73.9720894, 40.7264435 ], [ -73.97213, 40.726334 ], [ -73.9721697, 40.726241 ], [ -73.9722158, 40.7261423 ], [ -73.9723182, 40.725937 ], [ -73.9724211, 40.7257391 ], [ -73.9725359, 40.7255344 ], [ -73.9726509, 40.7253396 ], [ -73.9727718, 40.7251471 ], [ -73.9728978, 40.724946 ], [ -73.9730185, 40.7247561 ], [ -73.9731422, 40.7245593 ], [ -73.9732686, 40.7243583 ], [ -73.9733889, 40.7241646 ], [ -73.9741273, 40.722991 ], [ -73.9741911, 40.7228957 ], [ -73.9742522, 40.7227918 ], [ -73.9743063, 40.7226944 ], [ -73.9743603, 40.7225865 ], [ -73.9744048, 40.72249 ], [ -73.9744485, 40.7223851 ], [ -73.9744896, 40.722282 ], [ -73.9745308, 40.7221687 ], [ -73.9745613, 40.722064 ], [ -73.9745864, 40.7219614 ], [ -73.9746142, 40.7218499 ], [ -73.974632, 40.7217417 ], [ -73.9746621, 40.7215276 ], [ -73.9747151, 40.721087 ], [ -73.974961, 40.7190695 ], [ -73.9750115, 40.7186703 ], [ -73.9750434, 40.7184896 ], [ -73.9750795, 40.71829 ], [ -73.9751269, 40.718077 ], [ -73.9751825, 40.7178593 ], [ -73.9752401, 40.7176466 ], [ -73.9753055, 40.7174395 ], [ -73.9753802, 40.7172304 ], [ -73.9754591, 40.7170266 ], [ -73.9755435, 40.7168165 ], [ -73.9756384, 40.7166107 ], [ -73.9757407, 40.7163982 ], [ -73.976182, 40.7155522 ], [ -73.9777588, 40.7125226 ], [ -73.9778316, 40.7123857 ], [ -73.9778929, 40.7122834 ], [ -73.9779629, 40.7121901 ], [ -73.9780368, 40.7121037 ], [ -73.9781187, 40.712011 ], [ -73.9782014, 40.7119281 ], [ -73.9782841, 40.7118498 ], [ -73.9783772, 40.7117678 ], [ -73.9784511, 40.7117097 ], [ -73.9785774, 40.7116109 ], [ -73.9786833, 40.7115407 ], [ -73.9787895, 40.7114739 ], [ -73.9789041, 40.7114061 ], [ -73.9790164, 40.7113481 ], [ -73.9791359, 40.7112893 ], [ -73.9792567, 40.7112356 ], [ -73.979379, 40.7111861 ], [ -73.9795044, 40.7111395 ], [ -73.9796338, 40.7110959 ], [ -73.9797642, 40.7110582 ], [ -73.979894, 40.7110257 ], [ -73.9800337, 40.7109943 ], [ -73.9801685, 40.7109704 ], [ -73.9803037, 40.7109456 ], [ -73.9804436, 40.7109272 ], [ -73.9805799, 40.7109147 ], [ -73.9807261, 40.7109039 ], [ -73.9835509, 40.7107043 ], [ -73.9839372, 40.7106794 ], [ -73.9842247, 40.7106597 ], [ -73.9845026, 40.7106381 ], [ -73.9847416, 40.7106168 ], [ -73.9849952, 40.7105897 ], [ -73.9852561, 40.7105587 ], [ -73.9892573, 40.7100974 ], [ -73.9895284, 40.7100641 ], [ -73.9898051, 40.7100286 ], [ -73.9900869, 40.7099877 ], [ -73.9932278, 40.7095169 ], [ -73.9934976, 40.7094785 ], [ -73.9937683, 40.7094459 ], [ -73.994054, 40.7094138 ], [ -73.9943143, 40.7093792 ], [ -73.9947074, 40.7093261 ], [ -73.9968491, 40.7090266 ], [ -73.9974376, 40.708938 ], [ -73.9975964, 40.7089068 ], [ -73.9977322, 40.7088771 ], [ -73.9978345, 40.7088495 ], [ -73.9979512, 40.7088143 ], [ -73.9980521, 40.7087852 ], [ -73.9983873, 40.7086699 ], [ -73.9985675, 40.708608 ], [ -73.9987438, 40.7085151 ], [ -73.9988836, 40.7084565 ], [ -73.9990133, 40.7083951 ], [ -73.9991615, 40.7083186 ], [ -73.9995644, 40.7080872 ], [ -73.999772, 40.7079733 ], [ -73.999946, 40.7078762 ], [ -74.0001075, 40.7077913 ], [ -74.0003616, 40.7076632 ], [ -74.0006737, 40.7075088 ], [ -74.0009807, 40.7073568 ], [ -74.0012739, 40.7072039 ], [ -74.0016215, 40.7070267 ], [ -74.0025166, 40.7065192 ], [ -74.0027587, 40.706383 ], [ -74.0029805, 40.7062529 ], [ -74.0032036, 40.7061184 ], [ -74.0034245, 40.7059815 ], [ -74.0036227, 40.7058541 ], [ -74.0040959, 40.7055467 ], [ -74.0045343, 40.705267 ], [ -74.0049826, 40.7049754 ], [ -74.0054362, 40.7046852 ], [ -74.0059188, 40.7043772 ], [ -74.0063679, 40.7040869 ], [ -74.0068122, 40.7038023 ], [ -74.0072595, 40.7035266 ], [ -74.0084238, 40.7028174 ], [ -74.0092492, 40.7023226 ], [ -74.0093626, 40.7022552 ], [ -74.0094845, 40.7021904 ], [ -74.0096114, 40.7021271 ], [ -74.0097583, 40.7020631 ], [ -74.0098582, 40.7020264 ], [ -74.0098807, 40.7020181 ], [ -74.0100288, 40.7019726 ], [ -74.0102318, 40.7019118 ], [ -74.0103945, 40.7018684 ], [ -74.0105425, 40.7018314 ], [ -74.0119682, 40.7015123 ], [ -74.0125692, 40.7013782 ], [ -74.0126902, 40.7013541 ], [ -74.0128353, 40.7013264 ], [ -74.0129707, 40.7013063 ], [ -74.0131147, 40.701285 ], [ -74.0132355, 40.7012673 ], [ -74.0134084, 40.7012395 ], [ -74.0135568, 40.7012285 ], [ -74.0136581, 40.701223 ], [ -74.0137903, 40.7012234 ], [ -74.0138927, 40.7012236 ], [ -74.014009, 40.7012295 ], [ -74.0141319, 40.7012469 ], [ -74.0142502, 40.7012643 ], [ -74.0143621, 40.701284 ], [ -74.0144592, 40.7013049 ], [ -74.0145495, 40.7013293 ], [ -74.014669, 40.7013673 ], [ -74.0147961, 40.7014174 ], [ -74.0148596, 40.7014433 ], [ -74.0148942, 40.7014588 ], [ -74.0150689, 40.7015504 ], [ -74.0153253, 40.7017079 ], [ -74.0154618, 40.7018203 ], [ -74.015589, 40.7019405 ], [ -74.0157584, 40.7021342 ], [ -74.0158725, 40.7022783 ], [ -74.0159274, 40.7023732 ], [ -74.0160281, 40.7026113 ], [ -74.0161714, 40.702991 ], [ -74.0163055, 40.7033397 ], [ -74.0163957, 40.7035774 ], [ -74.0165173, 40.7038539 ], [ -74.0166007, 40.704122 ], [ -74.0166365, 40.7042836 ], [ -74.0166629, 40.7044268 ], [ -74.016672, 40.7045343 ], [ -74.0166711, 40.7046159 ], [ -74.0166707, 40.7046562 ], [ -74.0166667, 40.7047586 ], [ -74.016659, 40.7048261 ], [ -74.0166458, 40.7048835 ], [ -74.0166301, 40.7049302 ], [ -74.0165774, 40.7050763 ], [ -74.0162385, 40.7059739 ], [ -74.0161964, 40.7060881 ], [ -74.0161482, 40.7062227 ], [ -74.0160454, 40.7065099 ], [ -74.0160175, 40.7065604 ], [ -74.0159381, 40.7066739 ], [ -74.0158656, 40.7068404 ], [ -74.0158027, 40.7069934 ], [ -74.0157726, 40.7070752 ], [ -74.0157313, 40.7071861 ], [ -74.0156861, 40.7073089 ], [ -74.0156134, 40.7074742 ], [ -74.0155953, 40.7075181 ], [ -74.0155543, 40.7076106 ], [ -74.0155198, 40.7076904 ], [ -74.015476, 40.7077844 ], [ -74.0154424, 40.707859 ], [ -74.0153628, 40.7080651 ], [ -74.0152017, 40.7084917 ], [ -74.0150662, 40.7088289 ], [ -74.0150201, 40.7089605 ], [ -74.0149843, 40.7090886 ], [ -74.0149662, 40.7091651 ], [ -74.014948, 40.7092416 ], [ -74.0149097, 40.7093653 ], [ -74.0148836, 40.7094404 ], [ -74.014825, 40.7096105 ], [ -74.0147978, 40.7096771 ], [ -74.0147777, 40.7097261 ], [ -74.0147403, 40.7098267 ], [ -74.0147031, 40.7099206 ], [ -74.0146879, 40.7099712 ], [ -74.0146341, 40.710148 ], [ -74.0146121, 40.7102289 ], [ -74.0145644, 40.7104182 ], [ -74.0145533, 40.71046 ], [ -74.0144473, 40.7108299 ], [ -74.0143969, 40.7110047 ], [ -74.0143564, 40.7111512 ], [ -74.0143255, 40.7112933 ], [ -74.0142859, 40.7115138 ], [ -74.0142284, 40.7118488 ], [ -74.0141597, 40.7121786 ], [ -74.014049, 40.7126519 ], [ -74.0139835, 40.7129041 ], [ -74.0139595, 40.7129997 ], [ -74.0138978, 40.7131932 ], [ -74.0138487, 40.713332 ], [ -74.0137713, 40.7135338 ], [ -74.0137519, 40.7135898 ], [ -74.0137098, 40.7136952 ], [ -74.0136648, 40.7138046 ], [ -74.0134664, 40.7143067 ], [ -74.0134218, 40.714427 ], [ -74.0133839, 40.714539 ], [ -74.0133583, 40.7146293 ], [ -74.0133348, 40.7147252 ], [ -74.0132777, 40.7149577 ], [ -74.0132405, 40.7151101 ], [ -74.0132124, 40.7152226 ], [ -74.0131862, 40.7153349 ], [ -74.0130407, 40.715966 ], [ -74.012956, 40.7163227 ], [ -74.0129331, 40.7164234 ], [ -74.0129112, 40.7165132 ], [ -74.0128305, 40.7168432 ], [ -74.012784, 40.7170331 ], [ -74.0127568, 40.7171351 ], [ -74.0123505, 40.7189317 ], [ -74.0123246, 40.7190475 ], [ -74.0122999, 40.7191627 ], [ -74.0121519, 40.7198535 ], [ -74.012078, 40.7201985 ], [ -74.0120514, 40.720319 ], [ -74.0120278, 40.7204331 ], [ -74.0117761, 40.7216368 ], [ -74.0116606, 40.7222241 ], [ -74.0116409, 40.7223187 ], [ -74.011621, 40.7224097 ], [ -74.0115239, 40.7228732 ], [ -74.0115025, 40.7229787 ], [ -74.0113755, 40.7236301 ], [ -74.0112521, 40.7241901 ], [ -74.0112354, 40.7242749 ], [ -74.0112154, 40.7243726 ], [ -74.0111204, 40.7248669 ], [ -74.0110884, 40.7250195 ], [ -74.0110766, 40.7250752 ], [ -74.0110523, 40.7251803 ], [ -74.0109566, 40.7256707 ], [ -74.01093, 40.7258067 ], [ -74.0108723, 40.7261761 ], [ -74.0108016, 40.7266411 ], [ -74.010784, 40.7267742 ], [ -74.0107716, 40.7268827 ], [ -74.0107609, 40.7269928 ], [ -74.0106744, 40.7279304 ], [ -74.0106685, 40.7279844 ], [ -74.0106251, 40.7283922 ], [ -74.0105601, 40.7291043 ], [ -74.0105488, 40.7292181 ], [ -74.010503, 40.7296809 ], [ -74.0104975, 40.729728 ], [ -74.0104866, 40.729833 ], [ -74.0104166, 40.7305673 ], [ -74.0103605, 40.73115 ], [ -74.0103567, 40.7311999 ], [ -74.0103462, 40.7312977 ], [ -74.0103396, 40.7313804 ], [ -74.010277, 40.7320194 ], [ -74.0102518, 40.7322544 ], [ -74.0102474, 40.7322995 ], [ -74.0102422, 40.7323546 ], [ -74.0102359, 40.7324206 ], [ -74.0102269, 40.7325233 ], [ -74.0102222, 40.7325777 ], [ -74.0101693, 40.733143 ], [ -74.0101119, 40.7337564 ], [ -74.0101077, 40.7338077 ], [ -74.0101038, 40.7338609 ], [ -74.0100969, 40.73396 ], [ -74.0100767, 40.7342172 ], [ -74.0100438, 40.7345724 ], [ -74.0099942, 40.7351835 ], [ -74.0099894, 40.735236 ], [ -74.0099822, 40.7353026 ], [ -74.0099731, 40.7354081 ], [ -74.0099218, 40.7359907 ], [ -74.0098396, 40.7369804 ], [ -74.0098237, 40.7371935 ], [ -74.0098114, 40.7373286 ], [ -74.0098072, 40.7374291 ], [ -74.0098052, 40.7374787 ], [ -74.0098067, 40.737567 ], [ -74.0098119, 40.7376541 ], [ -74.0098185, 40.7377396 ], [ -74.0098246, 40.737825 ], [ -74.0098359, 40.7379359 ], [ -74.0098496, 40.7380417 ], [ -74.009911, 40.7384818 ], [ -74.0099169, 40.7385359 ], [ -74.0099251, 40.7385908 ], [ -74.0099309, 40.738654 ], [ -74.009934, 40.7387136 ], [ -74.0099368, 40.7387804 ], [ -74.0099344, 40.7388742 ], [ -74.0099322, 40.7389415 ], [ -74.0099256, 40.7390213 ], [ -74.0099146, 40.7390995 ], [ -74.0098976, 40.7391919 ], [ -74.0098862, 40.7392466 ], [ -74.0098697, 40.7393107 ], [ -74.0098286, 40.7394275 ], [ -74.0097986, 40.7395053 ], [ -74.0097631, 40.739582 ], [ -74.0097287, 40.7396539 ], [ -74.0096795, 40.7397441 ], [ -74.0093099, 40.7403448 ], [ -74.009264, 40.7404235 ], [ -74.0092282, 40.7404891 ], [ -74.009218, 40.740509 ], [ -74.0091925, 40.7405588 ], [ -74.0091649, 40.7406193 ], [ -74.0091353, 40.7406941 ], [ -74.0091067, 40.7407735 ], [ -74.0090777, 40.740862 ], [ -74.0090466, 40.7409669 ], [ -74.0090213, 40.7410539 ], [ -74.0089232, 40.7414238 ], [ -74.0089072, 40.7414863 ], [ -74.0088735, 40.7416144 ], [ -74.0088229, 40.7418214 ], [ -74.0087381, 40.7421542 ], [ -74.0087268, 40.7422001 ], [ -74.0087078, 40.7423282 ], [ -74.0086913, 40.7424705 ], [ -74.008605, 40.7428568 ], [ -74.0085783, 40.7429878 ], [ -74.0085672, 40.7430422 ], [ -74.0085446, 40.7431598 ], [ -74.0085153, 40.7433149 ], [ -74.0084087, 40.7438876 ], [ -74.0083937, 40.7439767 ], [ -74.0082935, 40.7445268 ], [ -74.0082819, 40.7445922 ], [ -74.0082636, 40.7446911 ], [ -74.0081928, 40.745081 ], [ -74.0081686, 40.7452094 ], [ -74.0081602, 40.7452542 ], [ -74.0081345, 40.7453904 ], [ -74.0080044, 40.7461009 ], [ -74.0079187, 40.7465997 ], [ -74.0079005, 40.7466979 ], [ -74.0078822, 40.7468041 ], [ -74.0078691, 40.7468792 ], [ -74.0077514, 40.7475124 ], [ -74.0077241, 40.7476641 ], [ -74.0076699, 40.7479591 ], [ -74.007638, 40.7481984 ], [ -74.0076372, 40.748272 ], [ -74.0076359, 40.748337 ], [ -74.007639, 40.7484065 ], [ -74.0076425, 40.7484767 ], [ -74.0076474, 40.7485265 ], [ -74.0076556, 40.7485826 ], [ -74.0076685, 40.748642 ], [ -74.0076825, 40.7486964 ], [ -74.0077055, 40.7487787 ], [ -74.0077235, 40.7488304 ], [ -74.0077485, 40.7488933 ], [ -74.007776, 40.7489568 ], [ -74.0078144, 40.7490334 ], [ -74.0078503, 40.7491032 ], [ -74.0079013, 40.7492004 ], [ -74.0079416, 40.7492705 ], [ -74.008112, 40.7495772 ], [ -74.0081442, 40.7496399 ], [ -74.0081727, 40.7497034 ], [ -74.0081981, 40.7497665 ], [ -74.0082241, 40.7498429 ], [ -74.008247, 40.7499232 ], [ -74.0082644, 40.7499968 ], [ -74.0082762, 40.7500477 ], [ -74.0082865, 40.7501087 ], [ -74.008297, 40.7501797 ], [ -74.0083005, 40.7502621 ], [ -74.0083, 40.7502868 ], [ -74.0082991, 40.7503417 ], [ -74.0082945, 40.7503947 ], [ -74.008286, 40.7504658 ], [ -74.0082745, 40.7505251 ], [ -74.0082568, 40.750595 ], [ -74.0082342, 40.7506623 ], [ -74.0082101, 40.7507284 ], [ -74.0081725, 40.7508277 ], [ -74.0078934, 40.7515688 ], [ -74.00788, 40.7516039 ], [ -74.0078501, 40.7516843 ], [ -74.0078289, 40.7517376 ], [ -74.007576, 40.7524138 ], [ -74.0073044, 40.7531186 ], [ -74.0071042, 40.7536523 ], [ -74.0070912, 40.7536889 ], [ -74.0070653, 40.7537482 ], [ -74.0070373, 40.7538181 ], [ -74.0070194, 40.7538541 ], [ -74.0069962, 40.753904 ], [ -74.0069683, 40.7539632 ], [ -74.006935, 40.7540257 ], [ -74.0068859, 40.7541045 ], [ -74.0068212, 40.7542053 ], [ -74.0067431, 40.75432 ], [ -74.0067118, 40.7543639 ], [ -74.0066345, 40.7544661 ], [ -74.0063844, 40.7548063 ], [ -74.0063168, 40.7549009 ], [ -74.0062153, 40.7550423 ], [ -74.0052945, 40.7563097 ], [ -74.0048991, 40.7568579 ], [ -74.0048129, 40.7569758 ], [ -74.004693, 40.7571381 ], [ -74.0039073, 40.7582281 ], [ -74.0038169, 40.7583508 ], [ -74.0035917, 40.7586637 ], [ -74.0033682, 40.7589662 ], [ -74.0032574, 40.7591162 ], [ -74.0031619, 40.7592486 ], [ -74.0029273, 40.7595683 ], [ -74.0026329, 40.7599698 ], [ -74.0026119, 40.7599985 ], [ -74.0025334, 40.7601045 ], [ -74.0022903, 40.7604432 ], [ -74.002203, 40.7605615 ], [ -74.0021141, 40.760683 ], [ -74.0020668, 40.7607466 ], [ -74.001705, 40.7612506 ], [ -74.0016475, 40.7613307 ], [ -74.0015378, 40.761484 ], [ -74.0015019, 40.7615309 ], [ -74.0014551, 40.7615883 ], [ -74.0014044, 40.7616494 ], [ -74.0013436, 40.761713 ], [ -74.0012798, 40.7617784 ], [ -74.0012148, 40.7618422 ], [ -74.0011864, 40.7618712 ], [ -74.0010599, 40.7619764 ], [ -74.0009205, 40.762085 ], [ -74.0008545, 40.7621394 ], [ -74.0003759, 40.7624904 ], [ -74.0002895, 40.7625524 ], [ -74.0002074, 40.7626163 ], [ -73.999968, 40.7627941 ], [ -73.9998097, 40.7629097 ], [ -73.9997321, 40.7629676 ], [ -73.999704, 40.76299 ], [ -73.9995988, 40.7630722 ], [ -73.9995254, 40.7631262 ], [ -73.999442, 40.7631876 ], [ -73.9993569, 40.76326 ], [ -73.9992669, 40.7633394 ], [ -73.9991906, 40.7634119 ], [ -73.9991072, 40.7634899 ], [ -73.9990436, 40.7635538 ], [ -73.9989729, 40.7636288 ], [ -73.9989285, 40.76368 ], [ -73.9988804, 40.7637389 ], [ -73.9988309, 40.763802 ], [ -73.9987162, 40.7639539 ], [ -73.9986041, 40.7641055 ], [ -73.9985698, 40.7641531 ], [ -73.9985035, 40.7642432 ], [ -73.9983917, 40.7643992 ], [ -73.9980477, 40.7648743 ], [ -73.9977775, 40.7652442 ], [ -73.9977059, 40.7653423 ], [ -73.9976587, 40.7654074 ], [ -73.9975936, 40.7654973 ], [ -73.9974664, 40.7656717 ], [ -73.9971388, 40.766122 ], [ -73.9967559, 40.76664 ], [ -73.9967357, 40.7666674 ], [ -73.9966818, 40.7667475 ], [ -73.996361, 40.7671855 ], [ -73.9962236, 40.7673726 ], [ -73.9958562, 40.7678788 ], [ -73.9958231, 40.7679241 ], [ -73.9957587, 40.768013 ], [ -73.9949389, 40.7691334 ], [ -73.9949103, 40.769173 ], [ -73.9948795, 40.7692158 ], [ -73.9948496, 40.76926 ], [ -73.994796, 40.7693447 ], [ -73.9947546, 40.7694176 ], [ -73.9947132, 40.7694919 ], [ -73.9946738, 40.7695713 ], [ -73.9946341, 40.7696577 ], [ -73.9945995, 40.7697491 ], [ -73.9945668, 40.7698405 ], [ -73.994536, 40.7699411 ], [ -73.9945121, 40.7700337 ], [ -73.9944969, 40.7701209 ], [ -73.994483, 40.7702154 ], [ -73.9944696, 40.7703087 ], [ -73.9944298, 40.7706377 ], [ -73.9944205, 40.7707028 ], [ -73.994392, 40.7709299 ], [ -73.9943748, 40.7710375 ], [ -73.9943504, 40.7711457 ], [ -73.994323, 40.7712499 ], [ -73.9942885, 40.7713475 ], [ -73.9942529, 40.7714508 ], [ -73.9942123, 40.7715377 ], [ -73.9941819, 40.7715991 ], [ -73.9941537, 40.771659 ], [ -73.9941058, 40.7717397 ], [ -73.9939989, 40.7719099 ], [ -73.9938459, 40.7721219 ], [ -73.9933406, 40.7728082 ], [ -73.992831575695405, 40.773555460437088 ], [ -73.958265520139449, 40.759273174903988 ] ] ] ] } }
]
}
